{"fetched_at":"2026-07-13T18:17:20.640Z","source":"https://celestrak.org/NORAD/elements/gp.php?NAME=STRIX&FORMAT=JSON","constellation":"synspective","records":[{"OBJECT_NAME":"STRIX-1","OBJECT_ID":"2022-113A","EPOCH":"2026-07-13T07:10:15.777408","CLASSIFICATION_TYPE":"U","MEAN_MOTION":15.40947107,"ECCENTRICITY":0.00054331,"INCLINATION":97.4485,"RA_OF_ASC_NODE":256.8066,"ARG_OF_PERICENTER":137.0845,"MEAN_ANOMALY":223.0826,"EPHEMERIS_TYPE":0,"NORAD_CAT_ID":53815,"ELEMENT_SET_NO":999,"REV_AT_EPOCH":21146,"BSTAR":0.00037491307,"MEAN_MOTION_DOT":0.00015365,"MEAN_MOTION_DDOT":0},{"OBJECT_NAME":"STRIX-3","OBJECT_ID":"2024-047A","EPOCH":"2026-07-13T06:06:37.573056","CLASSIFICATION_TYPE":"U","MEAN_MOTION":15.19791297,"ECCENTRICITY":0.00122099,"INCLINATION":97.6628,"RA_OF_ASC_NODE":170.3234,"ARG_OF_PERICENTER":342.0265,"MEAN_ANOMALY":18.0536,"EPHEMERIS_TYPE":0,"NORAD_CAT_ID":59224,"ELEMENT_SET_NO":999,"REV_AT_EPOCH":12870,"BSTAR":0.00021819314,"MEAN_MOTION_DOT":0.00004607,"MEAN_MOTION_DDOT":0},{"OBJECT_NAME":"STRIX-4","OBJECT_ID":"2024-137A","EPOCH":"2026-07-13T06:46:58.189152","CLASSIFICATION_TYPE":"U","MEAN_MOTION":15.33271437,"ECCENTRICITY":0.00158908,"INCLINATION":43.0147,"RA_OF_ASC_NODE":136.4577,"ARG_OF_PERICENTER":118.4163,"MEAN_ANOMALY":241.8295,"EPHEMERIS_TYPE":0,"NORAD_CAT_ID":60352,"ELEMENT_SET_NO":999,"REV_AT_EPOCH":10802,"BSTAR":0.00031321157,"MEAN_MOTION_DOT":0.00010053,"MEAN_MOTION_DDOT":0},{"OBJECT_NAME":"STRIX-2","OBJECT_ID":"2024-248A","EPOCH":"2026-07-13T06:21:42.518880","CLASSIFICATION_TYPE":"U","MEAN_MOTION":15.0918113,"ECCENTRICITY":0.00135498,"INCLINATION":97.6297,"RA_OF_ASC_NODE":149.7601,"ARG_OF_PERICENTER":242.9555,"MEAN_ANOMALY":117.0291,"EPHEMERIS_TYPE":0,"NORAD_CAT_ID":62406,"ELEMENT_SET_NO":999,"REV_AT_EPOCH":8552,"BSTAR":0.00017374798,"MEAN_MOTION_DOT":0.00002701,"MEAN_MOTION_DDOT":0},{"OBJECT_NAME":"STRIX-5","OBJECT_ID":"2025-229A","EPOCH":"2026-07-13T06:12:44.715168","CLASSIFICATION_TYPE":"U","MEAN_MOTION":15.04580758,"ECCENTRICITY":0.0037681,"INCLINATION":41.927,"RA_OF_ASC_NODE":142.8064,"ARG_OF_PERICENTER":225.1646,"MEAN_ANOMALY":134.6115,"EPHEMERIS_TYPE":0,"NORAD_CAT_ID":65971,"ELEMENT_SET_NO":999,"REV_AT_EPOCH":4090,"BSTAR":0.00013353,"MEAN_MOTION_DOT":0.00001737,"MEAN_MOTION_DDOT":0},{"OBJECT_NAME":"STRIX-6","OBJECT_ID":"2026-056A","EPOCH":"2026-07-13T07:18:19.022976","CLASSIFICATION_TYPE":"U","MEAN_MOTION":15.00323537,"ECCENTRICITY":0.00166032,"INCLINATION":50.281,"RA_OF_ASC_NODE":226.3222,"ARG_OF_PERICENTER":343.7537,"MEAN_ANOMALY":16.2878,"EPHEMERIS_TYPE":0,"NORAD_CAT_ID":68291,"ELEMENT_SET_NO":999,"REV_AT_EPOCH":1719,"BSTAR":0.00011598469,"MEAN_MOTION_DOT":0.00001207,"MEAN_MOTION_DDOT":0},{"OBJECT_NAME":"STRIX-8","OBJECT_ID":"2026-146A","EPOCH":"2026-07-12T23:04:44.352480","CLASSIFICATION_TYPE":"U","MEAN_MOTION":15.04423064,"ECCENTRICITY":0.00075185,"INCLINATION":41.9901,"RA_OF_ASC_NODE":25.466,"ARG_OF_PERICENTER":7.3301,"MEAN_ANOMALY":352.7634,"EPHEMERIS_TYPE":0,"NORAD_CAT_ID":69701,"ELEMENT_SET_NO":999,"REV_AT_EPOCH":244,"BSTAR":0.00019294339,"MEAN_MOTION_DOT":0.00002552,"MEAN_MOTION_DDOT":0}]}
