STRIX-1                 
1 53815U 22113A   26194.29879372  .00015365  00000+0  37491-3 0  9996
2 53815  97.4485 256.8066 0005433 137.0845 223.0826 15.40947107211462
STRIX-3                 
1 59224U 24047A   26194.25460154  .00004607  00000+0  21819-3 0  9998
2 59224  97.6628 170.3234 0012209 342.0265  18.0536 15.19791297128700
STRIX-4                 
1 60352U 24137A   26194.28261793  .00010053  00000+0  31321-3 0  9994
2 60352  43.0147 136.4577 0015890 118.4163 241.8295 15.33271437108025
STRIX-2                 
1 62406U 24248A   26194.26507545  .00002701  00000+0  17375-3 0  9999
2 62406  97.6297 149.7601 0013549 242.9555 117.0291 15.09181130 85522
STRIX-5                 
1 65971U 25229A   26194.25885087  .00001737  00000+0  13353-3 0  9998
2 65971  41.9270 142.8064 0037680 225.1646 134.6115 15.04580758 40905
STRIX-6                 
1 68291U 26056A   26194.30438684  .00001207  00000+0  11598-3 0  9999
2 68291  50.2810 226.3222 0016603 343.7537  16.2878 15.00323537 17190
STRIX-8                 
1 69701U 26146A   26193.96162445  .00002552  00000+0  19294-3 0  9991
2 69701  41.9901  25.4660 0007518   7.3301 352.7634 15.04423064  2446
